0 CZ-4 DEB
1 26270U 99057FG  13282.44659287  .00005209  00000-0  12187-2 0  5317
2 26270 098.1916 259.3813 0081270 326.4245 158.6701 14.53017203714532
0 CZ-4 DEB
1 26270U 99057FG  13283.94971861  .00005856  00000-0  13684-2 0  5320
2 26270 098.1916 260.8499 0081215 321.8145 101.3005 14.53025882714754
0 CZ-4 DEB
1 26270U 99057FG  13285.94609762  .00004709  00000-0  11028-2 0  5337
2 26270 098.1914 262.8011 0080969 315.5887 104.2757 14.53043098715040
0 CZ-4 DEB
1 26270U 99057FG  13288.50510166  .00006871  00000-0  16026-2 0  5347
2 26270 098.1912 265.3020 0080814 307.5362 170.5802 14.53069543715415
0 CZ-4 DEB
1 26270U 99057FG  13290.44186270  .00006503  00000-0  15170-2 0  5350
2 26270 098.1915 267.1951 0080637 301.4981 222.0163 14.53090665715696
0 CZ-4 DEB
1 26270U 99057FG  13292.82910131  .00005803  00000-0  13546-2 0  5363
2 26270 098.1924 269.5281 0080475 294.0313 110.1873 14.53115880716035
0 CZ-4 DEB
1 26270U 99057FG  13294.89829182  .00006356  00000-0  14820-2 0  5378
2 26270 098.1931 271.5506 0080395 287.5104 134.8071 14.53137693716334
